ONEWEB-0578             
1 56067U 23043X   24178.47375269 -.00000012  00000+0 -60101-4 0  9997
2 56067  87.9282  27.4438 0001687  85.9231 274.2095 13.21827321 63020
ONEWEB-0579             
1 56068U 23043Y   24178.08580916  .00000080  00000+0  16208-3 0  9993
2 56068  87.9279  27.5182 0002265  83.3197 276.8195 13.21827882 62985
ONEWEB-0581             
1 56069U 23043Z   24178.47109562  .00000006  00000+0 -18534-4 0  9995
2 56069  87.9097  12.2783 0002230  96.4011 263.7373 13.16595865 64122
ONEWEB-0609             
1 56070U 23043AA  24178.16028316  .00000076  00000+0  16914-3 0  9995
2 56070  87.9033  42.7034 0001832  75.9916 284.1418 13.15549463 61636
ONEWEB-0613             
1 56071U 23043AB  24178.15553111  .00000126  00000+0  30033-3 0  9995
2 56071  87.9037  42.7008 0002123  75.8026 284.3340 13.15546802 61637
ONEWEB-0630             
1 56072U 23043AC  24178.15076419  .00000172  00000+0  42364-3 0  9998
2 56072  87.9031  42.6926 0002088  73.3840 286.7520 13.15551329 61622
ONEWEB-0632             
1 56073U 23043AD  24178.14602469  .00000129  00000+0  30881-3 0  9991
2 56073  87.9031  42.7122 0002113  89.9903 270.1470 13.15547314 61624
ONEWEB-0633             
1 56074U 23043AE  24178.13968050  .00000036  00000+0  61851-4 0  9991
2 56074  87.9024  42.6955 0002563  59.4600 300.6783 13.15550633 61607
